{
    "cars": [
    {
        "id": 1,
        "name": "Sorento",
        "model": "Kia",
        "image": "images/1.jpg",
        "city": "morgan hill",
        "zip": 94536
    },
    {
        "id": 2,
        "name": "Traverse",
        "model": "Chevrolet",
        "image": "images/2.jpg",
        "city": "cambellsville",
        "zip": 16735
    },
    {
        "id": 3,
        "name": "1500 Club",
        "model": "Dodge",
        "image": "images/3.jpg",
        "city": "san jose",
        "zip": 12879
    },
    {
        "id": 4,
        "name": "QX",
        "model": "Infiniti",
        "image": "images/9.jpg",
        "city": "connecticut",
        "zip": 40640
    },
    {
        "id": 5,
        "name": "Navigator",
        "model": "Lincoln",
        "image": "images/5.jpg",
        "city": "hayward",
        "zip": 40640
    },
    {
        "id": 6,
        "name": "CR-V",
        "model": "Honda",
        "image": "images/1.jpg",
        "city": "cambellsville",
        "zip": 94538
    },
    {
        "id": 7,
        "name": "Grand Marquis",
        "model": "Mercury",
        "image": "images/7.jpg",
        "city": "fremont",
        "zip": 96283
    },
    {
        "id": 8,
        "name": "Volvo",
        "model": "Acura",
        "image": "images/8.jpg",
        "city": "foster city",
        "zip": 12879
    },
    {
        "id": 9,
        "name": "Explorer",
        "model": "Ford",
        "image": "images/9.jpg",
        "city": "san francisco",
        "zip": 94536
    },
    {
        "id": 10,
        "name": "Caravan",
        "model": "Dodge",
        "image": "images/1.jpg",
        "city": "foster city",
        "zip": 12879
    },
    {
        "id": 11,
        "name": "Challenger",
        "model": "Mitsubishi",
        "image": "images/2.jpg",
        "city": "san jose",
        "zip": 87872
    },
    {
        "id": 12,
        "name": "9-5",
        "model": "Saab",
        "image": "images/3.jpg",
        "city": "oakland",
        "zip": 63742
    },
    {
        "id": 13,
        "name": "Arnage",
        "model": "Bentley",
        "image": "images/9.jpg",
        "city": "newark",
        "zip": 40640
    },
    {
        "id": 14,
        "name": "Intrigue",
        "model": "Oldsmobile",
        "image": "images/5.jpg",
        "city": "morgan hill",
        "zip": 63742
    },
    {
        "id": 15,
        "name": "Accord",
        "model": "Honda",
        "image": "images/1.jpg",
        "city": "union city",
        "zip": 16735
    },
    {
        "id": 16,
        "name": "S-Series",
        "model": "Saturn",
        "image": "images/7.jpg",
        "city": "connecticut",
        "zip": 94536
    },
    {
        "id": 17,
        "name": "DB9",
        "model": "Aston Martin",
        "image": "images/8.jpg",
        "city": "newark",
        "zip": 16735
    },
    {
        "id": 18,
        "name": "Prizm",
        "model": "Chevrolet",
        "image": "images/9.jpg",
        "city": "san jose",
        "zip": 40640
    },
    {
        "id": 19,
        "name": "944",
        "model": "Porsche",
        "image": "images/1.jpg",
        "city": "new york city",
        "zip": 94536
    },
    {
        "id": 20,
        "name": "Cabriolet",
        "model": "Volkswagen",
        "image": "images/2.jpg",
        "city": "foster city",
        "zip": 96283
    },
    {
        "id": 21,
        "name": "Miata MX-5",
        "model": "Mazda",
        "image": "images/3.jpg",
        "city": "cambellsville",
        "zip": 12879
    },
    {
        "id": 22,
        "name": "Montero Sport",
        "model": "Mitsubishi",
        "image": "images/5.jpg",
        "city": "morgan hill",
        "zip": 40640
    },
    {
        "id": 23,
        "name": "Impala",
        "model": "Chevrolet",
        "image": "images/8.jpg",
        "city": "connecticut",
        "zip": 94538
    },
    {
        "id": 24,
        "name": "Continental Mark VII",
        "model": "Lincoln",
        "image": "images/9.jpg",
        "city": "union city",
        "zip": 94539
    }]
}
